IONOSFERA-M 4           
1 64877U 25155B   26166.52094609  .00000030  00000+0  33204-4 0  9994
2 64877  98.6030 128.3853 0000989 120.3085 239.8191 14.21488386 46160
MICROCARB               
1 64899U 25156A   26166.45072800  .00000428  00000+0  75471-4 0  9993
2 64899  97.9832 243.6190 0014979 278.2658  81.6850 14.72323822 47710
CO3D 3                  
1 64900U 25156B   26166.41041389  .00003526  00000+0  16588-3 0  9995
2 64900  97.4334 245.1287 0001365 130.7372 229.3982 15.20209597 49264
CO3D 4                  
1 64901U 25156C   26166.47638584  .00000250  00000+0  14683-4 0  9997
2 64901  97.4332 245.1936 0000238  14.6602 345.4640 15.20211588 49273
CO3D 2                  
1 64902U 25156D   26166.44304794  .00004145  00000+0  19445-3 0  9995
2 64902  97.4334 245.0599 0001507 109.0681 251.0717 15.20207265 49269
CO3D 1                  
1 64903U 25156E   26166.44319965  .00004827  00000+0  22591-3 0  9995
2 64903  97.4334 245.0601 0001308 114.2383 245.8989 15.20206573 49263
PRSC-S1                 
1 65055U 25164A   26166.47392063  .00004100  00000+0  28473-3 0  9995
2 65055  41.1314 297.4614 0006882 333.2885  26.7573 15.06445199 48170
SENTINEL-6B             
1 66514U 25264A   26166.29008502 -.00000066  00000+0 -21011-4 0  9990
2 66514  66.0393 139.1188 0008020 269.2064  90.8032 12.80930005 26920
CAS500-3                
1 66655U 25274F   26166.53445889  .00001076  00000+0  12208-3 0  9994
2 66655  97.7446  94.6230 0006715 114.3291 245.8627 14.88317612 29906
CSG-3                   
1 67304U 26001A   26166.51127330  .00000252  00000+0  38233-4 0  9993
2 67304  97.8884 350.1373 0001346  94.1884 265.9483 14.82152709 24211
PRSC-E03                
1 68835U 26092A   26166.53135167  .00002251  00000+0  15607-3 0  9992
2 68835  38.0006  99.4440 0004033 351.1321   8.9369 15.06660962  7705
CAS500-2                
1 69013U 26100AK  26166.30960716  .00005118  00000+0  23650-3 0  9994
2 69013  97.4083  64.1975 0010871  40.7302 319.4744 15.20570859  6524
