OBJECT_NAME,OBJECT_ID,EPOCH,MEAN_MOTION,ECCENTRICITY,INCLINATION,RA_OF_ASC_NODE,ARG_OF_PERICENTER,MEAN_ANOMALY,EPHEMERIS_TYPE,CLASSIFICATION_TYPE,NORAD_CAT_ID,ELEMENT_SET_NO,REV_AT_EPOCH,BSTAR,MEAN_MOTION_DOT,MEAN_MOTION_DDOT
IONOSFERA-M 4,2025-155B,2026-06-15T12:30:09.742176,14.21488386,.0000989,98.6030,128.3853,120.3085,239.8191,0,U,64877,999,4616,.33204E-4,.3E-6,0
MICROCARB,2025-156A,2026-06-15T10:49:02.899200,14.72323822,.0014979,97.9832,243.6190,278.2658,81.6850,0,U,64899,999,4771,.75471E-4,.428E-5,0
CO3D 3,2025-156B,2026-06-15T09:50:59.760096,15.20209597,.0001365,97.4334,245.1287,130.7372,229.3982,0,U,64900,999,4926,.16588E-3,.3526E-4,0
CO3D 4,2025-156C,2026-06-15T11:25:59.736576,15.20211588,.0000238,97.4332,245.1936,14.6602,345.4640,0,U,64901,999,4927,.14683E-4,.25E-5,0
CO3D 2,2025-156D,2026-06-15T10:37:59.342016,15.20207265,.0001507,97.4334,245.0599,109.0681,251.0717,0,U,64902,999,4926,.19445E-3,.4145E-4,0
CO3D 1,2025-156E,2026-06-15T10:38:12.449760,15.20206573,.0001308,97.4334,245.0601,114.2383,245.8989,0,U,64903,999,4926,.22591E-3,.4827E-4,0
PRSC-S1,2025-164A,2026-06-15T11:22:26.742432,15.06445199,.0006882,41.1314,297.4614,333.2885,26.7573,0,U,65055,999,4817,.28473E-3,.41E-4,0
SENTINEL-6B,2025-264A,2026-06-15T06:57:43.345728,12.80930005,.000802,66.0393,139.1188,269.2064,90.8032,0,U,66514,999,2692,-.21011E-4,-.66E-6,0
CAS500-3,2025-274F,2026-06-15T12:49:37.248096,14.88317612,.0006715,97.7446,94.6230,114.3291,245.8627,0,U,66655,999,2990,.12208E-3,.1076E-4,0
CSG-3,2026-001A,2026-06-15T12:16:14.013120,14.82152709,.0001346,97.8884,350.1373,94.1884,265.9483,0,U,67304,999,2421,.38233E-4,.252E-5,0
PRSC-E03,2026-092A,2026-06-15T12:45:08.784288,15.06660962,.0004033,38.0006,99.4440,351.1321,8.9369,0,U,68835,999,770,.15607E-3,.2251E-4,0
CAS500-2,2026-100AK,2026-06-15T07:25:50.058624,15.20570859,.0010871,97.4083,64.1975,40.7302,319.4744,0,U,69013,999,652,.2365E-3,.5118E-4,0
